{
  "norad_id": 68751,
  "name": "STARLINK-37277",
  "history": [
    {
      "epoch": "2026-04-23T06:55:45.745824Z",
      "apogee_km": 313.6002327692131,
      "perigee_km": 312.6704135671853,
      "latitude_deg": -3.376131053761803e-05,
      "longitude_deg": 20.140796493595637,
      "height_km": 316.0215455570614,
      "semi_major_axis_km": 6691.272323168198,
      "eccentricity": 6.948e-05,
      "inclination_deg": 97.2872,
      "raan_deg": 335.4195,
      "arg_perigee_deg": 50.4871,
      "mean_anomaly_deg": 309.6461,
      "mean_motion_rev_day": 15.86133377
    },
    {
      "epoch": "2026-04-25T20:00:01.000224Z",
      "apogee_km": 329.26148960802766,
      "perigee_km": 327.26700587694813,
      "latitude_deg": 78.08244389685102,
      "longitude_deg": 147.23469455457834,
      "height_km": 340.4648658132973,
      "semi_major_axis_km": 6706.401247742488,
      "eccentricity": 0.0001487,
      "inclination_deg": 97.2844,
      "raan_deg": 338.1164,
      "arg_perigee_deg": 89.5359,
      "mean_anomaly_deg": 350.9382,
      "mean_motion_rev_day": 15.80769184
    },
    {
      "epoch": "2026-04-26T00:00:02.999808Z",
      "apogee_km": 329.2003793815902,
      "perigee_km": 327.2967047816146,
      "latitude_deg": -51.25707829620441,
      "longitude_deg": 133.38275270992614,
      "height_km": 348.99517739106653,
      "semi_major_axis_km": 6706.385542081602,
      "eccentricity": 0.00014193,
      "inclination_deg": 97.2841,
      "raan_deg": 338.2913,
      "arg_perigee_deg": 91.7725,
      "mean_anomaly_deg": 216.662,
      "mean_motion_rev_day": 15.80774737
    },
    {
      "epoch": "2026-04-27T20:00:03.000384Z",
      "apogee_km": 328.99351797814234,
      "perigee_km": 327.23245673146357,
      "latitude_deg": -64.45992281586663,
      "longitude_deg": -160.17125571633338,
      "height_km": 353.6126014958931,
      "semi_major_axis_km": 6706.249987354802,
      "eccentricity": 0.0001313,
      "inclination_deg": 97.2843,
      "raan_deg": 340.232,
      "arg_perigee_deg": 101.4552,
      "mean_anomaly_deg": 193.3001,
      "mean_motion_rev_day": 15.80822666
    },
    {
      "epoch": "2026-04-28T20:00:01.000224Z",
      "apogee_km": 328.9455796952907,
      "perigee_km": 327.2301273777557,
      "latitude_deg": -41.589452966729596,
      "longitude_deg": -1.9945008153903925,
      "height_km": 344.79820192160184,
      "semi_major_axis_km": 6706.2248535365225,
      "eccentricity": 0.0001279,
      "inclination_deg": 97.2844,
      "raan_deg": 341.2901,
      "arg_perigee_deg": 83.6412,
      "mean_anomaly_deg": 138.0689,
      "mean_motion_rev_day": 15.80831553
    },
    {
      "epoch": "2026-04-29T20:53:31.517088Z",
      "apogee_km": 329.22793095570614,
      "perigee_km": 326.2759986334049,
      "latitude_deg": 4.174274881589559e-05,
      "longitude_deg": 171.17997522265168,
      "height_km": 331.3926256926772,
      "semi_major_axis_km": 6705.888964794555,
      "eccentricity": 0.0002201,
      "inclination_deg": 97.2832,
      "raan_deg": 342.3867,
      "arg_perigee_deg": 108.4814,
      "mean_anomaly_deg": 251.6694,
      "mean_motion_rev_day": 15.80950327
    },
    {
      "epoch": "2026-04-30T13:36:12.814272Z",
      "apogee_km": 328.67444607869766,
      "perigee_km": 327.2351846532838,
      "latitude_deg": -5.061940487124818e-05,
      "longitude_deg": -79.44210061736145,
      "height_km": 330.956059731148,
      "semi_major_axis_km": 6706.09181536599,
      "eccentricity": 0.00010731,
      "inclination_deg": 97.2826,
      "raan_deg": 343.123,
      "arg_perigee_deg": 76.0819,
      "mean_anomaly_deg": 284.0568,
      "mean_motion_rev_day": 15.80878595
    },
    {
      "epoch": "2026-05-02T09:39:41.247072Z",
      "apogee_km": 329.0403354977543,
      "perigee_km": 326.97484296427047,
      "latitude_deg": -3.3614792436442854e-05,
      "longitude_deg": -20.17816879970783,
      "height_km": 331.0158286021721,
      "semi_major_axis_km": 6706.144589231012,
      "eccentricity": 0.000154,
      "inclination_deg": 97.2826,
      "raan_deg": 345.0648,
      "arg_perigee_deg": 80.7906,
      "mean_anomaly_deg": 279.3536,
      "mean_motion_rev_day": 15.80859934
    },
    {
      "epoch": "2026-05-03T20:36:22.476672Z",
      "apogee_km": 332.808904535329,
      "perigee_km": 327.07349767338474,
      "latitude_deg": -1.784976986226545e-05,
      "longitude_deg": 175.7541039174809,
      "height_km": 334.70778728502677,
      "semi_major_axis_km": 6708.078201104357,
      "eccentricity": 0.0004275,
      "inclination_deg": 97.2829,
      "raan_deg": 346.604,
      "arg_perigee_deg": 123.8479,
      "mean_anomaly_deg": 236.3196,
      "mean_motion_rev_day": 15.80176456
    }
  ]
}